STARLINK-36193          
1 67099U 25298AA  26007.84909185  .00044317  00000+0  10089-2 0  9994
2 67099  70.0004 177.1024 0003586 273.3140  86.7632 15.42730359  3877
STARLINK-36215          
1 67100U 25298AB  26007.84399449  .00065318  00000+0  10547-2 0  9996
2 67100  70.0005 176.6708 0003667 275.0719  85.0050 15.52544840  3881
STARLINK-36200          
1 67101U 25298AC  26007.83335648  .00069691  00000+0  15824-2 0  9998
2 67101  70.0007 176.7845 0003482 273.1755 313.5607 15.42675951  5168
STARLINK-36255          
1 67102U 25299A   26007.83335648  .00088687  00000+0  21094-2 0  9992
2 67102  43.0010 159.6975 0001675 282.6607 235.7742 15.40646929  5009
STARLINK-36256          
1 67103U 25299B   26007.83335648  .00085441  00000+0  20333-2 0  9993
2 67103  43.0008 159.6369 0001730 282.9569 260.3477 15.40647860  5000
STARLINK-36258          
1 67104U 25299C   26007.71532531  .00099828  00000+0  16844-2 0  9997
2 67104  42.9999 160.0406 0001577 270.5799  89.4881 15.50602192  3718
STARLINK-36261          
1 67105U 25299D   26007.83335648  .00087121  00000+0  20725-2 0  9997
2 67105  43.0010 159.6675 0001698 281.8336 249.0415 15.40650288  5002
STARLINK-36259          
1 67106U 25299E   26007.83335648  .00093254  00000+0  22181-2 0  9990
2 67106  43.0001 159.4258 0001859 290.9062 339.5231 15.40623122  5002
STARLINK-36196          
1 67107U 25299F   26007.71462868  .00094191  00000+0  15878-2 0  9999
2 67107  43.0000 160.0353 0001918 268.6018  91.4623 15.50654455  3714
STARLINK-36208          
1 67108U 25299G   26007.71395342  .00064783  00000+0  10995-2 0  9991
2 67108  42.9999 160.0304 0001435 271.8961  88.1735 15.50617488  3715
STARLINK-35764          
1 67109U 25299H   26007.83335648  .00100796  00000+0  23916-2 0  9990
2 67109  43.0008 159.5468 0001392 280.3882 300.2225 15.40660890  4898
STARLINK-35781          
1 67110U 25299J   26007.39119240  .00017425  00000+0  30969-3 0  9994
2 67110  42.9989 161.9098 0002324 326.7971  33.2743 15.49882893  3662
