CCSDS_OMM_VERS = 2.0
CREATION_DATE  = 
ORIGINATOR     = 

OBJECT_NAME    = STARLINK-36193
OBJECT_ID      = 2025-298AA
CENTER_NAME    = EARTH
REF_FRAME      = TEME
TIME_SYSTEM    = UTC
MEAN_ELEMENT_THEORY = SGP/SGP4

EPOCH          = 2026-01-07T20:22:41.535840
MEAN_MOTION    = 15.42730359
ECCENTRICITY   = .0003586
INCLINATION    = 70.0004
RA_OF_ASC_NODE = 177.1024
ARG_OF_PERICENTER = 273.3140
MEAN_ANOMALY   = 86.7632

EPHEMERIS_TYPE = 0
CLASSIFICATION_TYPE = U
NORAD_CAT_ID   = 67099
ELEMENT_SET_NO = 999
REV_AT_EPOCH   = 387
BSTAR          = .10089E-2
MEAN_MOTION_DOT = .44317E-3
MEAN_MOTION_DDOT = 0

CCSDS_OMM_VERS = 2.0
CREATION_DATE  = 
ORIGINATOR     = 

OBJECT_NAME    = STARLINK-36215
OBJECT_ID      = 2025-298AB
CENTER_NAME    = EARTH
REF_FRAME      = TEME
TIME_SYSTEM    = UTC
MEAN_ELEMENT_THEORY = SGP/SGP4

EPOCH          = 2026-01-07T20:15:21.123936
MEAN_MOTION    = 15.52544840
ECCENTRICITY   = .0003667
INCLINATION    = 70.0005
RA_OF_ASC_NODE = 176.6708
ARG_OF_PERICENTER = 275.0719
MEAN_ANOMALY   = 85.0050

EPHEMERIS_TYPE = 0
CLASSIFICATION_TYPE = U
NORAD_CAT_ID   = 67100
ELEMENT_SET_NO = 999
REV_AT_EPOCH   = 388
BSTAR          = .10547E-2
MEAN_MOTION_DOT = .65318E-3
MEAN_MOTION_DDOT = 0

CCSDS_OMM_VERS = 2.0
CREATION_DATE  = 
ORIGINATOR     = 

OBJECT_NAME    = STARLINK-36200
OBJECT_ID      = 2025-298AC
CENTER_NAME    = EARTH
REF_FRAME      = TEME
TIME_SYSTEM    = UTC
MEAN_ELEMENT_THEORY = SGP/SGP4

EPOCH          = 2026-01-07T20:00:01.999872
MEAN_MOTION    = 15.42675951
ECCENTRICITY   = .0003482
INCLINATION    = 70.0007
RA_OF_ASC_NODE = 176.7845
ARG_OF_PERICENTER = 273.1755
MEAN_ANOMALY   = 313.5607

EPHEMERIS_TYPE = 0
CLASSIFICATION_TYPE = U
NORAD_CAT_ID   = 67101
ELEMENT_SET_NO = 999
REV_AT_EPOCH   = 516
BSTAR          = .15824E-2
MEAN_MOTION_DOT = .69691E-3
MEAN_MOTION_DDOT = 0

CCSDS_OMM_VERS = 2.0
CREATION_DATE  = 
ORIGINATOR     = 

OBJECT_NAME    = STARLINK-36255
OBJECT_ID      = 2025-299A
CENTER_NAME    = EARTH
REF_FRAME      = TEME
TIME_SYSTEM    = UTC
MEAN_ELEMENT_THEORY = SGP/SGP4

EPOCH          = 2026-01-07T20:00:01.999872
MEAN_MOTION    = 15.40646929
ECCENTRICITY   = .0001675
INCLINATION    = 43.0010
RA_OF_ASC_NODE = 159.6975
ARG_OF_PERICENTER = 282.6607
MEAN_ANOMALY   = 235.7742

EPHEMERIS_TYPE = 0
CLASSIFICATION_TYPE = U
NORAD_CAT_ID   = 67102
ELEMENT_SET_NO = 999
REV_AT_EPOCH   = 500
BSTAR          = .21094E-2
MEAN_MOTION_DOT = .88687E-3
MEAN_MOTION_DDOT = 0

CCSDS_OMM_VERS = 2.0
CREATION_DATE  = 
ORIGINATOR     = 

OBJECT_NAME    = STARLINK-36256
OBJECT_ID      = 2025-299B
CENTER_NAME    = EARTH
REF_FRAME      = TEME
TIME_SYSTEM    = UTC
MEAN_ELEMENT_THEORY = SGP/SGP4

EPOCH          = 2026-01-07T20:00:01.999872
MEAN_MOTION    = 15.40647860
ECCENTRICITY   = .000173
INCLINATION    = 43.0008
RA_OF_ASC_NODE = 159.6369
ARG_OF_PERICENTER = 282.9569
MEAN_ANOMALY   = 260.3477

EPHEMERIS_TYPE = 0
CLASSIFICATION_TYPE = U
NORAD_CAT_ID   = 67103
ELEMENT_SET_NO = 999
REV_AT_EPOCH   = 500
BSTAR          = .20333E-2
MEAN_MOTION_DOT = .85441E-3
MEAN_MOTION_DDOT = 0

CCSDS_OMM_VERS = 2.0
CREATION_DATE  = 
ORIGINATOR     = 

OBJECT_NAME    = STARLINK-36258
OBJECT_ID      = 2025-299C
CENTER_NAME    = EARTH
REF_FRAME      = TEME
TIME_SYSTEM    = UTC
MEAN_ELEMENT_THEORY = SGP/SGP4

EPOCH          = 2026-01-07T17:10:04.106784
MEAN_MOTION    = 15.50602192
ECCENTRICITY   = .0001577
INCLINATION    = 42.9999
RA_OF_ASC_NODE = 160.0406
ARG_OF_PERICENTER = 270.5799
MEAN_ANOMALY   = 89.4881

EPHEMERIS_TYPE = 0
CLASSIFICATION_TYPE = U
NORAD_CAT_ID   = 67104
ELEMENT_SET_NO = 999
REV_AT_EPOCH   = 371
BSTAR          = .16844E-2
MEAN_MOTION_DOT = .99828E-3
MEAN_MOTION_DDOT = 0

CCSDS_OMM_VERS = 2.0
CREATION_DATE  = 
ORIGINATOR     = 

OBJECT_NAME    = STARLINK-36261
OBJECT_ID      = 2025-299D
CENTER_NAME    = EARTH
REF_FRAME      = TEME
TIME_SYSTEM    = UTC
MEAN_ELEMENT_THEORY = SGP/SGP4

EPOCH          = 2026-01-07T20:00:01.999872
MEAN_MOTION    = 15.40650288
ECCENTRICITY   = .0001698
INCLINATION    = 43.0010
RA_OF_ASC_NODE = 159.6675
ARG_OF_PERICENTER = 281.8336
MEAN_ANOMALY   = 249.0415

EPHEMERIS_TYPE = 0
CLASSIFICATION_TYPE = U
NORAD_CAT_ID   = 67105
ELEMENT_SET_NO = 999
REV_AT_EPOCH   = 500
BSTAR          = .20725E-2
MEAN_MOTION_DOT = .87121E-3
MEAN_MOTION_DDOT = 0

CCSDS_OMM_VERS = 2.0
CREATION_DATE  = 
ORIGINATOR     = 

OBJECT_NAME    = STARLINK-36259
OBJECT_ID      = 2025-299E
CENTER_NAME    = EARTH
REF_FRAME      = TEME
TIME_SYSTEM    = UTC
MEAN_ELEMENT_THEORY = SGP/SGP4

EPOCH          = 2026-01-07T20:00:01.999872
MEAN_MOTION    = 15.40623122
ECCENTRICITY   = .0001859
INCLINATION    = 43.0001
RA_OF_ASC_NODE = 159.4258
ARG_OF_PERICENTER = 290.9062
MEAN_ANOMALY   = 339.5231

EPHEMERIS_TYPE = 0
CLASSIFICATION_TYPE = U
NORAD_CAT_ID   = 67106
ELEMENT_SET_NO = 999
REV_AT_EPOCH   = 500
BSTAR          = .22181E-2
MEAN_MOTION_DOT = .93254E-3
MEAN_MOTION_DDOT = 0

CCSDS_OMM_VERS = 2.0
CREATION_DATE  = 
ORIGINATOR     = 

OBJECT_NAME    = STARLINK-36196
OBJECT_ID      = 2025-299F
CENTER_NAME    = EARTH
REF_FRAME      = TEME
TIME_SYSTEM    = UTC
MEAN_ELEMENT_THEORY = SGP/SGP4

EPOCH          = 2026-01-07T17:09:03.917952
MEAN_MOTION    = 15.50654455
ECCENTRICITY   = .0001918
INCLINATION    = 43.0000
RA_OF_ASC_NODE = 160.0353
ARG_OF_PERICENTER = 268.6018
MEAN_ANOMALY   = 91.4623

EPHEMERIS_TYPE = 0
CLASSIFICATION_TYPE = U
NORAD_CAT_ID   = 67107
ELEMENT_SET_NO = 999
REV_AT_EPOCH   = 371
BSTAR          = .15878E-2
MEAN_MOTION_DOT = .94191E-3
MEAN_MOTION_DDOT = 0

CCSDS_OMM_VERS = 2.0
CREATION_DATE  = 
ORIGINATOR     = 

OBJECT_NAME    = STARLINK-36208
OBJECT_ID      = 2025-299G
CENTER_NAME    = EARTH
REF_FRAME      = TEME
TIME_SYSTEM    = UTC
MEAN_ELEMENT_THEORY = SGP/SGP4

EPOCH          = 2026-01-07T17:08:05.575488
MEAN_MOTION    = 15.50617488
ECCENTRICITY   = .0001435
INCLINATION    = 42.9999
RA_OF_ASC_NODE = 160.0304
ARG_OF_PERICENTER = 271.8961
MEAN_ANOMALY   = 88.1735

EPHEMERIS_TYPE = 0
CLASSIFICATION_TYPE = U
NORAD_CAT_ID   = 67108
ELEMENT_SET_NO = 999
REV_AT_EPOCH   = 371
BSTAR          = .10995E-2
MEAN_MOTION_DOT = .64783E-3
MEAN_MOTION_DDOT = 0

CCSDS_OMM_VERS = 2.0
CREATION_DATE  = 
ORIGINATOR     = 

OBJECT_NAME    = STARLINK-35764
OBJECT_ID      = 2025-299H
CENTER_NAME    = EARTH
REF_FRAME      = TEME
TIME_SYSTEM    = UTC
MEAN_ELEMENT_THEORY = SGP/SGP4

EPOCH          = 2026-01-07T20:00:01.999872
MEAN_MOTION    = 15.40660890
ECCENTRICITY   = .0001392
INCLINATION    = 43.0008
RA_OF_ASC_NODE = 159.5468
ARG_OF_PERICENTER = 280.3882
MEAN_ANOMALY   = 300.2225

EPHEMERIS_TYPE = 0
CLASSIFICATION_TYPE = U
NORAD_CAT_ID   = 67109
ELEMENT_SET_NO = 999
REV_AT_EPOCH   = 489
BSTAR          = .23916E-2
MEAN_MOTION_DOT = .100796E-2
MEAN_MOTION_DDOT = 0

CCSDS_OMM_VERS = 2.0
CREATION_DATE  = 
ORIGINATOR     = 

OBJECT_NAME    = STARLINK-35781
OBJECT_ID      = 2025-299J
CENTER_NAME    = EARTH
REF_FRAME      = TEME
TIME_SYSTEM    = UTC
MEAN_ELEMENT_THEORY = SGP/SGP4

EPOCH          = 2026-01-07T09:23:19.023360
MEAN_MOTION    = 15.49882893
ECCENTRICITY   = .0002324
INCLINATION    = 42.9989
RA_OF_ASC_NODE = 161.9098
ARG_OF_PERICENTER = 326.7971
MEAN_ANOMALY   = 33.2743

EPHEMERIS_TYPE = 0
CLASSIFICATION_TYPE = U
NORAD_CAT_ID   = 67110
ELEMENT_SET_NO = 999
REV_AT_EPOCH   = 366
BSTAR          = .30969E-3
MEAN_MOTION_DOT = .17425E-3
MEAN_MOTION_DDOT = 0

